GLOBALSTAR M068         
1 32266U 07048D   25290.26712021 -.00000068  00000+0  19824-3 0  9998
2 32266  51.9883 290.1146 0001376  50.0413 323.2804 12.62830891832980
GLOBALSTAR M079         
1 37188U 10054A   25290.67974042 -.00000110  00000+0 -32019-4 0  9996
2 37188  52.0022 126.8990 0000860 107.0466 337.5736 12.62267849691921
GLOBALSTAR M074         
1 37189U 10054B   25290.71461580 -.00000076  00000+0  15669-3 0  9991
2 37189  51.9994 126.0967 0000816  85.0249  37.7293 12.62272623692530
GLOBALSTAR M076         
1 37190U 10054C   25290.73583749 -.00000057  00000+0  26102-3 0  9990
2 37190  52.0005 126.2154 0000629  97.6745   0.7360 12.62266651692257
GLOBALSTAR M077         
1 37191U 10054D   25290.75406248 -.00000089  00000+0  53846-4 0  9992
2 37191  52.0060  85.6225 0002004  40.6334 332.3370 12.36452486692605
GLOBALSTAR M075         
1 37192U 10054E   25290.65190984 -.00000081  00000+0  12507-3 0  9999
2 37192  51.9929 168.6595 0000840  75.9694 301.9211 12.62268925691311
GLOBALSTAR M073         
1 37193U 10054F   25290.73033536 -.00000101  00000+0  17786-4 0  9996
2 37193  52.0053  82.3311 0000786 114.4141 259.0804 12.62263596693317
GLOBALSTAR M083         
1 37739U 11033A   25290.44026439 -.00000093  00000+0  61953-4 0  9997
2 37739  51.9880  31.7756 0000755 118.4193 318.0465 12.62276926662290
GLOBALSTAR M088         
1 37740U 11033B   25290.75179132 -.00000076  00000+0  15232-3 0  9991
2 37740  52.0216 296.6716 0000456  71.4818  99.7695 12.62268964657874
GLOBALSTAR M091         
1 37741U 11033C   25290.68561712 -.00000094  00000+0  53599-4 0  9992
2 37741  51.9988 260.1945 0000619  78.3665  92.6983 12.62260637658654
GLOBALSTAR M085         
1 37742U 11033D   25290.51421862 -.00000096  00000+0  43237-4 0  9996
2 37742  52.0117 211.7967 0000818  82.0227  89.7055 12.62265739659144
GLOBALSTAR M081         
1 37743U 11033E   25290.21856450 -.00000103  00000+0  50387-5 0  9993
2 37743  51.9951 215.4094 0000579  80.2473  66.9996 12.62269254659257
GLOBALSTAR M089         
1 37744U 11033F   25290.70841376 -.00000084  00000+0  10827-3 0  9990
2 37744  51.9922 168.1229 0000716  62.3824 332.6404 12.62271754660161
GLOBALSTAR M084         
1 38040U 11080A   25290.75029373 -.00000102  00000+0  79825-5 0  9998
2 38040  52.0031  35.3453 0000308  97.8527  67.3071 12.62269445638147
GLOBALSTAR M080         
1 38041U 11080B   25290.71881034 -.00000098  00000+0  32537-4 0  9997
2 38041  52.0079  37.0759 0001111  96.9525  54.3071 12.62269706638268
GLOBALSTAR M082         
1 38042U 11080C   25290.48579772 -.00000078  00000+0  14141-3 0  9993
2 38042  52.0103 353.2619 0000808 104.4036 358.1039 12.62263823638947
GLOBALSTAR M092         
1 38043U 11080D   25290.67736868 -.00000086  00000+0  99693-4 0  9991
2 38043  52.0072  83.0597 0000823  96.5166 276.0112 12.62267058637424
GLOBALSTAR M090         
1 38044U 11080E   25290.34897285 -.00000079  00000+0  13807-3 0  9991
2 38044  52.0147 347.5566 0000556 119.3532 320.2326 12.62262907639043
GLOBALSTAR M086         
1 38045U 11080F   25290.63045478 -.00000073  00000+0  17411-3 0  9992
2 38045  51.9922 347.0243 0000818 207.0993 318.4585 12.62278268639028
GLOBALSTAR M097         
1 39072U 13005A   25290.62157322 -.00000104  00000+0 -17941-5 0  9999
2 39072  52.0042 261.7281 0000404  87.5721 272.5192 12.62266524586273
GLOBALSTAR M093         
1 39073U 13005B   25290.59556723 -.00000096  00000+0  44362-4 0  9999
2 39073  52.0096 255.0621 0000515 105.5690 254.5234 12.62265362586227
GLOBALSTAR M094         
1 39074U 13005C   25290.67443689 -.00000084  00000+0  10901-3 0  9993
2 39074  51.9942 169.1796 0000825  92.9749 267.1212 12.62264398587845
GLOBALSTAR M096         
1 39075U 13005D   25290.76681904 -.00000103  00000+0  41789-5 0  9990
2 39075  52.0065 217.5077 0000726  85.7957 274.2993 12.62267661586777
GLOBALSTAR M078         
1 39076U 13005E   25290.74088772 -.00000079  00000+0  13648-3 0  9996
2 39076  51.9874 301.9348 0001267  88.4361 271.6651 12.62261278585390
GLOBALSTAR M095         
1 39077U 13005F   25290.45015672 -.00000077  00000+0  14743-3 0  9999
2 39077  52.0083 300.0782 0000764 107.8583 252.2368 12.62260901585213
GLOBALSTAR M087         
1 52888U 22064A   25290.70088245 -.00000089  00000+0  82301-4 0  9992
2 52888  51.9989  80.6873 0000988 110.2939 249.8034 12.62289429160514
